*******************************************************************************
 Revised: September 10, 2019           Uranus                               799
 
 PHYSICAL DATA (updated 2018-Aug-15):
  Mass x10^24 (kg)      = 86.813          Density (g/cm^3)       =  1.271
  Equat. radius (1 bar) = 25559+-4 km     Polar radius (km)      = 24973+-20
  Vol. Mean Radius (km) = 25362+-12       Flattening             =  0.02293
  Geometric Albedo      = 0.51
  Sid. rot. period (III)= 17.24+-0.01 h   Sid. rot. rate (rad/s) = -0.000101237
  Mean solar day, h     =~17.24           Rocky core mass (Mc/M) =  0.0012        
  GM (km^3/s^2)         = 5793951.322     GM 1-sigma (km^3/s^2)  = +-4.3 
  Equ. grav, ge (m/s^2) =  8.87           Pol. grav, gp (m/s^2)  =   9.19+-0.02
  Visual magnitude V(1,0)= -7.11
  Vis. mag. (opposition)=  +5.52          Obliquity to orbit     = 97.77 deg
  Sidereal orbit period = 84.0120465 y    Sidereal orbit period  = 30685.4 d
  Mean daily motion     = 0.01176904 dg/d Mean orbit velocity    =  6.8 km/s
  Atmos. temp. (1 bar)  =  76+-2 K        Escape speed, km/s     =  21.3           
  Aroche(ice)/Rp        =  2.20           Hill's sphere rad., Rp = 2700
                                 Perihelion   Aphelion    Mean
  Solar Constant (W/m^2)         4.09         3.39        3.71
  Maximum Planetary IR (W/m^2)   0.72         0.55        0.63
  Minimum Planetary IR (W/m^2)   0.72         0.55        0.63
*******************************************************************************
 
 
*******************************************************************************
Ephemeris / WWW_USER Sat Jul 10 13:41:58 2021 Pasadena, USA      / Horizons
*******************************************************************************
Target body name: Uranus (799)                    {source: ura111}
Center body name: Solar System Barycenter (0)     {source: DE441}
Center-site name: BODY CENTER
*******************************************************************************
Start time      : A.D. 1900-Jan-01 00:00:00.0000 TDB
Stop  time      : A.D. 2100-Jan-01 00:00:00.0000 TDB
Step-size       : 72000 minutes
*******************************************************************************
Center geodetic : 0.00000000,0.00000000,0.0000000 {E-lon(deg),Lat(deg),Alt(km)}
Center cylindric: 0.00000000,0.00000000,0.0000000 {E-lon(deg),Dxy(km),Dz(km)}
Center radii    : (undefined)                                                  
Output units    : AU-D
Output type     : GEOMETRIC cartesian states
Output format   : 2 (position and velocity)
Reference frame : ICRF
*******************************************************************************
JDTDB
   X     Y     Z
   VX    VY    VZ
*******************************************************************************
$$SOE
2423270.500000000 = A.D. 1922-Aug-04 00:00:00.0000 TDB 
 X = 1.914211039734045E+01 Y =-5.476375891984429E+00 Z =-2.670083298073640E+00
 VX= 1.161881938719725E-03 VY= 3.272088138092271E-03 VZ= 1.416472523181545E-03
2423320.500000000 = A.D. 1922-Sep-23 00:00:00.0000 TDB 
 X = 1.919932858834378E+01 Y =-5.312525830967926E+00 Z =-2.599130566272295E+00
 VX= 1.126925351248619E-03 VY= 3.281897112949643E-03 VZ= 1.421416897723136E-03
2423370.500000000 = A.D. 1922-Nov-12 00:00:00.0000 TDB 
 X = 1.925479280183290E+01 Y =-5.148190163041723E+00 Z =-2.527940642692894E+00
 VX= 1.091654884393578E-03 VY= 3.291471729908397E-03 VZ= 1.426164238134054E-03
2423420.500000000 = A.D. 1923-Jan-01 00:00:00.0000 TDB 
 X = 1.930849830611216E+01 Y =-4.983384167767857E+00 Z =-2.456519428861581E+00
 VX= 1.056419846301774E-03 VY= 3.300756631921195E-03 VZ= 1.430626805534299E-03
2423470.500000000 = A.D. 1923-Feb-20 00:00:00.0000 TDB 
 X = 1.936043993307678E+01 Y =-4.818122825886306E+00 Z =-2.384873575127246E+00
 VX= 1.021210170078667E-03 VY= 3.309677497228193E-03 VZ= 1.435088273349487E-03
2423520.500000000 = A.D. 1923-Apr-11 00:00:00.0000 TDB 
 X = 1.941061345015103E+01 Y =-4.652421208931309E+00 Z =-2.313010181475488E+00
 VX= 9.857464552271227E-04 VY= 3.318305293483929E-03 VZ= 1.439514239302973E-03
2423570.500000000 = A.D. 1923-May-31 00:00:00.0000 TDB 
 X = 1.945901498470034E+01 Y =-4.486294683130343E+00 Z =-2.240935589143346E+00
 VX= 9.501527705570591E-04 VY= 3.326687877227715E-03 VZ= 1.443629800306280E-03
2423620.500000000 = A.D. 1923-Jul-20 00:00:00.0000 TDB 
 X = 1.950564005892366E+01 Y =-4.319758500078135E+00 Z =-2.168656070029696E+00
 VX= 9.146463608405887E-04 VY= 3.334748237185372E-03 VZ= 1.447540247116689E-03
2423670.500000000 = A.D. 1923-Sep-08 00:00:00.0000 TDB 
 X = 1.955048441688889E+01 Y =-4.152827782162578E+00 Z =-2.096178554542330E+00
 VX= 8.791197258786456E-04 VY= 3.342448638759202E-03 VZ= 1.451465122167330E-03
2423720.500000000 = A.D. 1923-Oct-28 00:00:00.0000 TDB 
 X = 1.959354448133421E+01 Y =-3.985517846617908E+00 Z =-2.023509826305546E+00
 VX= 8.434125773855988E-04 VY= 3.349854673473492E-03 VZ= 1.455301894356074E-03
2423770.500000000 = A.D. 1923-Dec-17 00:00:00.0000 TDB 
 X = 1.963481652940451E+01 Y =-3.817844080712758E+00 Z =-1.950656295188042E+00
 VX= 8.075680702092828E-04 VY= 3.356984303308445E-03 VZ= 1.458947620720363E-03
2423820.500000000 = A.D. 1924-Feb-05 00:00:00.0000 TDB 
 X = 1.967429676913749E+01 Y =-3.649821770080265E+00 Z =-1.877624681074641E+00
 VX= 7.716650791925357E-04 VY= 3.363815376965403E-03 VZ= 1.462416090880213E-03
2423870.500000000 = A.D. 1924-Mar-26 00:00:00.0000 TDB 
 X = 1.971198187708439E+01 Y =-3.481466282998202E+00 Z =-1.804421780788017E+00
 VX= 7.357182991350481E-04 VY= 3.370347096863830E-03 VZ= 1.465705276192711E-03
2423920.500000000 = A.D. 1924-May-15 00:00:00.0000 TDB 
 X = 1.974786853620284E+01 Y =-3.312793068347239E+00 Z =-1.731054098552104E+00
 VX= 6.997589689758726E-04 VY= 3.376550929847193E-03 VZ= 1.468887734700709E-03
2423970.500000000 = A.D. 1924-Jul-04 00:00:00.0000 TDB 
 X = 1.978195333991126E+01 Y =-3.143817477361835E+00 Z =-1.657528406138997E+00
 VX= 6.637204300675614E-04 VY= 3.382428297013396E-03 VZ= 1.472013259820066E-03
2424020.500000000 = A.D. 1924-Aug-23 00:00:00.0000 TDB 
 X = 1.981423341619882E+01 Y =-2.974554928473351E+00 Z =-1.583851646538519E+00
 VX= 6.275380641474933E-04 VY= 3.388022992144466E-03 VZ= 1.474978499005181E-03
2424070.500000000 = A.D. 1924-Oct-12 00:00:00.0000 TDB 
 X = 1.984470602976943E+01 Y =-2.805020996695410E+00 Z =-1.510030293526328E+00
 VX= 5.913556009000307E-04 VY= 3.393307549416043E-03 VZ= 1.477763485634305E-03
2424120.500000000 = A.D. 1924-Dec-01 00:00:00.0000 TDB 
 X = 1.987336805829680E+01 Y =-2.635231127360714E+00 Z =-1.436070954944293E+00
 VX= 5.551640445102538E-04 VY= 3.398247363782743E-03 VZ= 1.480505933839439E-03
2424170.500000000 = A.D. 1925-Jan-20 00:00:00.0000 TDB 
 X = 1.990021684184759E+01 Y =-2.465200703017669E+00 Z =-1.361980810031019E+00
 VX= 5.187663101143451E-04 VY= 3.402901489057243E-03 VZ= 1.483147940981662E-03
2424220.500000000 = A.D. 1925-Mar-11 00:00:00.0000 TDB 
 X = 1.992525037889246E+01 Y =-2.294945375284204E+00 Z =-1.287766570206613E+00
 VX= 4.823285470100045E-04 VY= 3.407295211480467E-03 VZ= 1.485463829678015E-03
2424270.500000000 = A.D. 1925-Apr-30 00:00:00.0000 TDB 
 X = 1.994846612646458E+01 Y =-2.124480796163452E+00 Z =-1.213434474141989E+00
 VX= 4.460985477922823E-04 VY= 3.411326779720765E-03 VZ= 1.487627177469932E-03
2424320.500000000 = A.D. 1925-Jun-19 00:00:00.0000 TDB 
 X = 1.996986131302904E+01 Y =-1.953822329639714E+00 Z =-1.138991580059782E+00
 VX= 4.098135321668243E-04 VY= 3.414970441468466E-03 VZ= 1.489938504598902E-03
2424370.500000000 = A.D. 1925-Aug-08 00:00:00.0000 TDB 
 X = 1.998943428336235E+01 Y =-1.782985496973833E+00 Z =-1.064445237906354E+00
 VX= 3.732074326996303E-04 VY= 3.418368402168621E-03 VZ= 1.492102698459079E-03
2424420.500000000 = A.D. 1925-Sep-27 00:00:00.0000 TDB 
 X = 2.000718360000709E+01 Y =-1.611986140272903E+00 Z =-9.898017645568449E-01
 VX= 3.366012878090452E-04 VY= 3.421529261545572E-03 VZ= 1.493830432660009E-03
2424470.500000000 = A.D. 1925-Nov-16 00:00:00.0000 TDB 
 X = 2.002310683373910E+01 Y =-1.440839857098450E+00 Z =-9.150675108463856E-01
 VX= 3.002321793336377E-04 VY= 3.424300163959112E-03 VZ= 1.495480746939887E-03
2424520.500000000 = A.D. 1926-Jan-05 00:00:00.0000 TDB 
 X = 2.003720199005375E+01 Y =-1.269562010482870E+00 Z =-8.402499700216033E-01
 VX= 2.637198707699995E-04 VY= 3.426720688226549E-03 VZ= 1.497224266354375E-03
2424570.500000000 = A.D. 1926-Feb-24 00:00:00.0000 TDB 
 X = 2.004946830730240E+01 Y =-1.098168333313007E+00 Z =-7.653562313139433E-01
 VX= 2.269558029261976E-04 VY= 3.428921234741383E-03 VZ= 1.498673240660155E-03
2424620.500000000 = A.D. 1926-Apr-15 00:00:00.0000 TDB 
 X = 2.005990448109156E+01 Y =-9.266747112771075E-01 Z =-6.903923258042896E-01
 VX= 1.903947414433338E-04 VY= 3.430808818684041E-03 VZ= 1.499798859196966E-03
2424670.500000000 = A.D. 1926-Jun-04 00:00:00.0000 TDB 
 X = 2.006850842769049E+01 Y =-7.550966099493622E-01 Z =-6.153650987576608E-01
 VX= 1.539581065390771E-04 VY= 3.432279843830230E-03 VZ= 1.501045022076818E-03
2424720.500000000 = A.D. 1926-Jul-24 00:00:00.0000 TDB 
 X = 2.007527921961628E+01 Y =-5.834495012232495E-01 Z =-5.402822310473245E-01
 VX= 1.171702151397458E-04 VY= 3.433465159603592E-03 VZ= 1.502319357174969E-03
2424770.500000000 = A.D. 1926-Sep-12 00:00:00.0000 TDB 
 X = 2.008021670314777E+01 Y =-4.117493083079564E-01 Z =-4.651503104635130E-01
 VX= 8.024661847901807E-05 VY= 3.434453837459069E-03 VZ= 1.503130813389145E-03
2424820.500000000 = A.D. 1926-Nov-01 00:00:00.0000 TDB 
 X = 2.008331963670864E+01 Y =-2.400118230584483E-01 Z =-3.899754248363236E-01
 VX= 4.363941648751051E-05 VY= 3.435088135884388E-03 VZ= 1.503684446493626E-03
2424870.500000000 = A.D. 1926-Dec-21 00:00:00.0000 TDB 
 X = 2.008458666757110E+01 Y =-6.825244610433086E-02 Z =-3.147648936801332E-01
 VX= 7.096608230681686E-06 VY= 3.435300216562871E-03 VZ= 1.504430386323118E-03
